{"type": "FeatureCollection", "features": [ {"type": "Feature", "properties": {"norad_id": 66955, "name": "HULIANWANG DIGUI-116", "group": "last-30-days", "lat": -57.66805558917634, "lon": -19.714098557957037, "alt_km": 1012.3259429342388, "timestamp": "2025-12-13T13:34:33.866968+00:00", "meta": {"OBJECT_NAME": "HULIANWANG DIGUI-116", "OBJECT_ID": "2025-287C", "EPOCH": "2025-12-12T16:48:25.869888", "MEAN_MOTION": 13.68902962, "ECCENTRICITY": 0.00079672, "INCLINATION": 86.4908, "RA_OF_ASC_NODE": 346.1651, "ARG_OF_PERICENTER": 198.3498, "MEAN_ANOMALY": 161.7375, "EPHEMERIS_TYPE": 0, "CLASSIFICATION_TYPE": "U", "NORAD_CAT_ID": 66955, "ELEMENT_SET_NO": 999, "REV_AT_EPOCH": 52, "BSTAR": 2.269262e-05, "MEAN_MOTION_DOT": 3.6e-07, "MEAN_MOTION_DDOT": 0}, "tle": {"line1": "1 66955U 25287C   25346.70029942  .00000036  00000+0  22693-4 0  9992", "line2": "2 66955  86.4908 346.1651 0007967 198.3498 161.7375 13.68902962   528"}}, "geometry": {"type": "Point", "coordinates": [-19.714098557957037, -57.66805558917634]}}, {"type": "Feature", "properties": {"norad_id": 66956, "name": "HULIANWANG DIGUI-117", "group": "last-30-days", "lat": -55.789111256475124, "lon": -19.310870293373586, "alt_km": 1012.4009782491084, "timestamp": "2025-12-13T13:34:33.866977+00:00", "meta": {"OBJECT_NAME": "HULIANWANG DIGUI-117", "OBJECT_ID": "2025-287D", "EPOCH": "2025-12-11T19:45:00.614592", "MEAN_MOTION": 13.6901764, "ECCENTRICITY": 0.00072845, "INCLINATION": 86.4968, "RA_OF_ASC_NODE": 346.4938, "ARG_OF_PERICENTER": 195.1574, "MEAN_ANOMALY": 164.9368, "EPHEMERIS_TYPE": 0, "CLASSIFICATION_TYPE": "U", "NORAD_CAT_ID": 66956, "ELEMENT_SET_NO": 999, "REV_AT_EPOCH": 40, "BSTAR": 1.8810541e-05, "MEAN_MOTION_DOT": 3.3e-07, "MEAN_MOTION_DDOT": 0}, "tle": {"line1": "1 66956U 25287D   25345.82292378  .00000033  00000+0  18811-4 0  9994", "line2": "2 66956  86.4968 346.4938 0007284 195.1574 164.9368 13.69017640   403"}}, "geometry": {"type": "Point", "coordinates": [-19.310870293373586, -55.789111256475124]}}, {"type": "Feature", "properties": {"norad_id": 66957, "name": "HULIANWANG DIGUI-118", "group": "last-30-days", "lat": -53.8869743080327, "lon": -18.965563535665126, "alt_km": 1012.2342289902754, "timestamp": "2025-12-13T13:34:33.866986+00:00", "meta": {"OBJECT_NAME": "HULIANWANG DIGUI-118", "OBJECT_ID": "2025-287E", "EPOCH": "2025-12-12T16:47:31.774848", "MEAN_MOTION": 13.69137019, "ECCENTRICITY": 0.00072192, "INCLINATION": 86.4945, "RA_OF_ASC_NODE": 346.17, "ARG_OF_PERICENTER": 190.5502, "MEAN_ANOMALY": 169.5507, "EPHEMERIS_TYPE": 0, "CLASSIFICATION_TYPE": "U", "NORAD_CAT_ID": 66957, "ELEMENT_SET_NO": 999, "REV_AT_EPOCH": 52, "BSTAR": -0.00019372766, "MEAN_MOTION_DOT": -1.51e-06, "MEAN_MOTION_DDOT": 0}, "tle": {"line1": "1 66957U 25287E   25346.69967332 -.00000151  00000+0 -19373-3 0  9996", "line2": "2 66957  86.4945 346.1700 0007219 190.5502 169.5507 13.69137019   523"}}, "geometry": {"type": "Point", "coordinates": [-18.965563535665126, -53.8869743080327]}}, {"type": "Feature", "properties": {"norad_id": 66958, "name": "CZ-6A R/B", "group": "last-30-days", "lat": 9.592423348021194, "lon": -13.621656147297823, "alt_km": 912.1541761101244, "timestamp": "2025-12-13T13:34:33.866996+00:00", "meta": {"OBJECT_NAME": "CZ-6A R/B", "OBJECT_ID": "2025-287F", "EPOCH": "2025-12-12T23:45:26.611776", "MEAN_MOTION": 13.94919345, "ECCENTRICITY": 0.01072376, "INCLINATION": 86.5058, "RA_OF_ASC_NODE": 346.0055, "ARG_OF_PERICENTER": 101.4025, "MEAN_ANOMALY": 259.9218, "EPHEMERIS_TYPE": 0, "CLASSIFICATION_TYPE": "U", "NORAD_CAT_ID": 66958, "ELEMENT_SET_NO": 999, "REV_AT_EPOCH": 57, "BSTAR": 0.000149332, "MEAN_MOTION_DOT": 2.29e-06, "MEAN_MOTION_DDOT": 0}, "tle": {"line1": "1 66958U 25287F   25346.98989134  .00000229  00000+0  14933-3 0  9994", "line2": "2 66958  86.5058 346.0055 0107237 101.4025 259.9218 13.94919345   570"}}, "geometry": {"type": "Point", "coordinates": [-13.621656147297823, 9.592423348021194]}}, {"type": "Feature", "properties": {"norad_id": 66988, "name": "YAOGAN-47", "group": "last-30-days", "lat": -20.259534048280134, "lon": -130.10901870472418, "alt_km": 502.0728812461339, "timestamp": "2025-12-13T13:34:33.867005+00:00", "meta": {"OBJECT_NAME": "YAOGAN-47", "OBJECT_ID": "2025-289A", "EPOCH": "2025-12-11T14:58:29.248032", "MEAN_MOTION": 15.23120362, "ECCENTRICITY": 8.584e-05, "INCLINATION": 97.5268, "RA_OF_ASC_NODE": 50.7421, "ARG_OF_PERICENTER": 73.685, "MEAN_ANOMALY": 286.448, "EPHEMERIS_TYPE": 0, "CLASSIFICATION_TYPE": "U", "NORAD_CAT_ID": 66988, "ELEMENT_SET_NO": 999, "REV_AT_EPOCH": 37, "BSTAR": 0.00024920475, "MEAN_MOTION_DOT": 5.809e-05, "MEAN_MOTION_DDOT": 0}, "tle": {"line1": "1 66988U 25289A   25345.62394963  .00005809  00000+0  24920-3 0  9995", "line2": "2 66988  97.5268  50.7421 0000858  73.6850 286.4480 15.23120362   372"}}, "geometry": {"type": "Point", "coordinates": [-130.10901870472418, -20.259534048280134]}}, {"type": "Feature", "properties": {"norad_id": 66989, "name": "CZ-4B R/B", "group": "last-30-days", "lat": 37.3903681790124, "lon": -121.23163446316714, "alt_km": 442.5268627856376, "timestamp": "2025-12-13T13:34:33.867015+00:00", "meta": {"OBJECT_NAME": "CZ-4B R/B", "OBJECT_ID": "2025-289B", "EPOCH": "2025-12-12T21:39:12.187296", "MEAN_MOTION": 15.67199194, "ECCENTRICITY": 0.01493632, "INCLINATION": 97.5266, "RA_OF_ASC_NODE": 52.2573, "ARG_OF_PERICENTER": 2.333, "MEAN_ANOMALY": 357.8593, "EPHEMERIS_TYPE": 0, "CLASSIFICATION_TYPE": "U", "NORAD_CAT_ID": 66989, "ELEMENT_SET_NO": 999, "REV_AT_EPOCH": 59, "BSTAR": 0.00085236852, "MEAN_MOTION_DOT": 0.00170532, "MEAN_MOTION_DDOT": 1.0424924e-05}, "tle": {"line1": "1 66989U 25289B   25346.90222439  .00170532  10425-4  85237-3 0  9997", "line2": "2 66989  97.5266  52.2573 0149363   2.3330 357.8593 15.67199194   592"}}, "geometry": {"type": "Point", "coordinates": [-121.23163446316714, 37.3903681790124]}}, {"type": "Feature", "properties": {"norad_id": 66990, "name": "TJS-22", "group": "last-30-days", "lat": 1.7066530106369824, "lon": -54.997334895566844, "alt_km": 35706.3140247833, "timestamp": "2025-12-13T13:34:33.867026+00:00", "meta": {"OBJECT_NAME": "TJS-22", "OBJECT_ID": "2025-290A", "EPOCH": "2025-12-10T07:11:32.845344", "MEAN_MOTION": 2.15443148, "ECCENTRICITY": 0.6664534, "INCLINATION": 20.1261, "RA_OF_ASC_NODE": 301.1464, "ARG_OF_PERICENTER": 180.6877, "MEAN_ANOMALY": 177.6237, "EPHEMERIS_TYPE": 0, "CLASSIFICATION_TYPE": "U", "NORAD_CAT_ID": 66990, "ELEMENT_SET_NO": 999, "REV_AT_EPOCH": 3, "BSTAR": 0.079788243, "MEAN_MOTION_DOT": -3.8e-07, "MEAN_MOTION_DDOT": 0}, "tle": {"line1": "1 66990U 25290A   25344.29968571 -.00000038  00000+0  79788-1 0  9994", "line2": "2 66990  20.1261 301.1464 6664534 180.6877 177.6237  2.15443148    32"}}, "geometry": {"type": "Point", "coordinates": [-54.997334895566844, 1.7066530106369824]}}, {"type": "Feature", "properties": {"norad_id": 66991, "name": "CZ-3B R/B", "group": "last-30-days", "lat": -7.07245293020882, "lon": -71.92494198444548, "alt_km": 30566.759213334608, "timestamp": "2025-12-13T13:34:33.867036+00:00", "meta": {"OBJECT_NAME": "CZ-3B R/B", "OBJECT_ID": "2025-290B", "EPOCH": "2025-12-10T06:44:55.577184", "MEAN_MOTION": 2.37676924, "ECCENTRICITY": 0.72420555, "INCLINATION": 28.4645, "RA_OF_ASC_NODE": 302.5976, "ARG_OF_PERICENTER": 179.3847, "MEAN_ANOMALY": 182.8677, "EPHEMERIS_TYPE": 0, "CLASSIFICATION_TYPE": "U", "NORAD_CAT_ID": 66991, "ELEMENT_SET_NO": 999, "REV_AT_EPOCH": 3, "BSTAR": 0.00043781284, "MEAN_MOTION_DOT": 0.00018897, "MEAN_MOTION_DDOT": 4.56211e-07}, "tle": {"line1": "1 66991U 25290B   25344.28119881  .00018897  45621-6  43781-3 0  9998", "line2": "2 66991  28.4645 302.5976 7242055 179.3847 182.8677  2.37676924    36"}}, "geometry": {"type": "Point", "coordinates": [-71.92494198444548, -7.07245293020882]}}, {"type": "Feature", "properties": {"norad_id": 66993, "name": "2025-292A", "group": "last-30-days", "lat": 32.78220400587844, "lon": -114.92338186525556, "alt_km": 556.4399645317371, "timestamp": "2025-12-13T13:34:33.867045+00:00", "meta": {"OBJECT_NAME": "2025-292A", "OBJECT_ID": "2025-292A", "EPOCH": "2025-12-12T22:33:30.596544", "MEAN_MOTION": 15.0449122, "ECCENTRICITY": 0.00139263, "INCLINATION": 97.6534, "RA_OF_ASC_NODE": 59.4889, "ARG_OF_PERICENTER": 272.3922, "MEAN_ANOMALY": 87.571, "EPHEMERIS_TYPE": 0, "CLASSIFICATION_TYPE": "U", "NORAD_CAT_ID": 66993, "ELEMENT_SET_NO": 999, "REV_AT_EPOCH": 42, "BSTAR": 0.00049309476, "MEAN_MOTION_DOT": 6.857e-05, "MEAN_MOTION_DDOT": 0}, "tle": {"line1": "1 66993U 25292A   25346.93993746  .00006857  00000+0  49309-3 0  9996", "line2": "2 66993  97.6534  59.4889 0013926 272.3922  87.5710 15.04491220   422"}}, "geometry": {"type": "Point", "coordinates": [-114.92338186525556, 32.78220400587844]}}, {"type": "Feature", "properties": {"norad_id": 66994, "name": "2025-292B", "group": "last-30-days", "lat": 32.25513438488322, "lon": -115.02234123282288, "alt_km": 556.3274950576642, "timestamp": "2025-12-13T13:34:33.867054+00:00", "meta": {"OBJECT_NAME": "2025-292B", "OBJECT_ID": "2025-292B", "EPOCH": "2025-12-12T17:46:05.180736", "MEAN_MOTION": 15.0453506, "ECCENTRICITY": 0.00137597, "INCLINATION": 97.6543, "RA_OF_ASC_NODE": 59.2916, "ARG_OF_PERICENTER": 273.7223, "MEAN_ANOMALY": 86.243, "EPHEMERIS_TYPE": 0, "CLASSIFICATION_TYPE": "U", "NORAD_CAT_ID": 66994, "ELEMENT_SET_NO": 999, "REV_AT_EPOCH": 39, "BSTAR": 0.00058817545, "MEAN_MOTION_DOT": 8.202e-05, "MEAN_MOTION_DDOT": 0}, "tle": {"line1": "1 66994U 25292B   25346.74033774  .00008202  00000+0  58818-3 0  9993", "line2": "2 66994  97.6543  59.2916 0013759 273.7223  86.2430 15.04535060   397"}}, "geometry": {"type": "Point", "coordinates": [-115.02234123282288, 32.25513438488322]}}]}